0 COSMOS 717
1 07684U 75016G   13282.49627497  .00000003  00000-0  13659-3 0  7851
2 07684 074.0039 324.5218 0035726 000.0590 066.5396 12.39776489747720
0 COSMOS 717
1 07684U 75016G   13287.17369683  .00000004  00000-0  14978-3 0  7879
2 07684 074.0029 318.4137 0035837 353.1570 062.8060 12.39776771748300
0 COSMOS 717
1 07684U 75016G   13289.19241780 -.00000022  00000-0 -45547-4 0  7880
2 07684 074.0027 315.7772 0035868 350.1998 072.7401 12.39776986748552
0 COSMOS 717
1 07684U 75016G   13291.45775103 -.00000029  00000-0 -99943-4 0  7890
2 07684 074.0026 312.8184 0035898 346.8913 103.3434 12.39777096748839
0 COSMOS 717
1 07684U 75016G   13293.47981179 -.00000013  00000-0  19486-4 0  7904
2 07684 074.0027 310.1774 0035930 343.9408 128.1752 12.39776927749088
0 COSMOS 717
1 07684U 75016G   13295.49377822  .00000006  00000-0  16467-3 0  7919
2 07684 074.0026 307.5472 0035978 341.0012 116.8810 12.39776747749331
